start=new Date('2021-11-17T00:00:00.000Z').valueOf();
sats=[{"CENTER_NAME":"EARTH","TIME_SYSTEM":"UTC","EPOCH":"2021-11-16T14:53:24.286272","MEAN_ELEMENT_THEORY":"SGP4","NORAD_CAT_ID":"47741","PERIOD":"95.592","COUNTRY_CODE":"US","OBJECT_TYPE":"PAYLOAD","REV_AT_EPOCH":"3985","ARG_OF_PERICENTER":"71.9803","MEAN_MOTION_DOT":"0.00000023","TLE_LINE2":"2 47741  53.0572  77.8994 0001753  71.9803 288.1377 15.06408610 39857","FILE":"3216932","MEAN_ANOMALY":"288.1377","REF_FRAME":"TEME","BSTAR":"0.00002045100000","CLASSIFICATION_TYPE":"U","INCLINATION":"53.0572","APOAPSIS":"548.401","SEMIMAJOR_AXIS":"6925.322","MEAN_MOTION_DDOT":"0.0000000000000","PERIAPSIS":"545.973","OBJECT_NAME":"STARLINK-2154","GP_ID":"189885778","ELEMENT_SET_NO":"999","SITE":"AFETR","RA_OF_ASC_NODE":"77.8994","MEAN_MOTION":"15.06408610","DECAY_DATE":null,"EPHEMERIS_TYPE":"0","TLE_LINE1":"1 47741U 21017V   21320.62041998  .00000023  00000-0  20451-4 0  9992","RCS_SIZE":"LARGE","ECCENTRICITY":"0.00017530","LAUNCH_DATE":"2021-03-04","OBJECT_ID":"2021-017V"},{"GP_ID":"189885391","ELEMENT_SET_NO":"999","RA_OF_ASC_NODE":"68.1438","SITE":"AFETR","OBJECT_NAME":"STARLINK-2156","MEAN_MOTION_DDOT":"0.0000000000000","PERIAPSIS":"546.330","CLASSIFICATION_TYPE":"U","SEMIMAJOR_AXIS":"6925.358","INCLINATION":"53.0562","APOAPSIS":"548.115","TLE_LINE2":"2 47742  53.0562  68.1438 0001289  81.7659 278.3476 15.06397013 39984","MEAN_MOTION_DOT":"0.00001102","REF_FRAME":"TEME","BSTAR":"0.00009283600000","MEAN_ANOMALY":"278.3476","FILE":"3216932","REV_AT_EPOCH":"3998","COUNTRY_CODE":"US","OBJECT_TYPE":"PAYLOAD","ARG_OF_PERICENTER":"81.7659","NORAD_CAT_ID":"47742","PERIOD":"95.592","MEAN_ELEMENT_THEORY":"SGP4","TIME_SYSTEM":"UTC","CENTER_NAME":"EARTH","EPOCH":"2021-11-16T13:35:07.229760","LAUNCH_DATE":"2021-03-04","OBJECT_ID":"2021-017W","ECCENTRICITY":"0.00012890","RCS_SIZE":"LARGE","TLE_LINE1":"1 47742U 21017W   21320.56605590  .00001102  00000-0  92836-4 0  9995","EPHEMERIS_TYPE":"0","DECAY_DATE":null,"MEAN_MOTION":"15.06397013"},{"DECAY_DATE":null,"MEAN_MOTION":"15.06397460","TLE_LINE1":"1 47743U 21017X   21320.72455094  .00000218  00000-0  33546-4 0  9996","EPHEMERIS_TYPE":"0","OBJECT_ID":"2021-017X","LAUNCH_DATE":"2021-03-04","RCS_SIZE":"LARGE","ECCENTRICITY":"0.00008130","MEAN_ELEMENT_THEORY":"SGP4","EPOCH":"2021-11-16T17:23:21.201216","TIME_SYSTEM":"UTC","CENTER_NAME":"EARTH","ARG_OF_PERICENTER":"89.4269","OBJECT_TYPE":"PAYLOAD","COUNTRY_CODE":"US","REV_AT_EPOCH":"4000","PERIOD":"95.592","NORAD_CAT_ID":"47743","INCLINATION":"53.0568","APOAPSIS":"547.784","SEMIMAJOR_AXIS":"6925.356","CLASSIFICATION_TYPE":"U","MEAN_ANOMALY":"270.6813","FILE":"3216878","BSTAR":"0.00003354600000","REF_FRAME":"TEME","MEAN_MOTION_DOT":"0.00000218","TLE_LINE2":"2 47743  53.0568  67.4112 0000813  89.4269 270.6813 15.06397460 40007","SITE":"AFETR","RA_OF_ASC_NODE":"67.4112","ELEMENT_SET_NO":"999","GP_ID":"189884166","PERIAPSIS":"546.658","MEAN_MOTION_DDOT":"0.0000000000000","OBJECT_NAME":"STARLINK-2157"},{"PERIOD":"95.592","NORAD_CAT_ID":"47744","ARG_OF_PERICENTER":"84.4278","COUNTRY_CODE":"US","OBJECT_TYPE":"PAYLOAD","REV_AT_EPOCH":"4066","EPOCH":"2021-11-16T13:40:25.945536","TIME_SYSTEM":"UTC","CENTER_NAME":"EARTH","MEAN_ELEMENT_THEORY":"SGP4","PERIAPSIS":"546.445","MEAN_MOTION_DDOT":"0.0000000000000","OBJECT_NAME":"STARLINK-2158","SITE":"AFETR","RA_OF_ASC_NODE":"68.1239","ELEMENT_SET_NO":"999","GP_ID":"189881119","MEAN_ANOMALY":"275.6840","FILE":"3216827","BSTAR":"0.00000276550000","REF_FRAME":"TEME","MEAN_MOTION_DOT":"-0.00000240","TLE_LINE2":"2 47744  53.0581  68.1239 0001129  84.4278 275.6840 15.06395706 40665","INCLINATION":"53.0581","APOAPSIS":"548.009","SEMIMAJOR_AXIS":"6925.362","CLASSIFICATION_TYPE":"U","EPHEMERIS_TYPE":"0","TLE_LINE1":"1 47744U 21017Y   21320.56974474 -.00000240  00000-0  27655-5 0  9998","MEAN_MOTION":"15.06395706","DECAY_DATE":null,"RCS_SIZE":"LARGE","ECCENTRICITY":"0.00011290","OBJECT_ID":"2021-017Y","LAUNCH_DATE":"2021-03-04"},{"MEAN_MOTION_DOT":"0.00001339","TLE_LINE2":"2 47745  53.0552  78.0029 0001253  81.3615 278.7516 15.06400666 40475","FILE":"3216827","MEAN_ANOMALY":"278.7516","BSTAR":"0.00010876000000","REF_FRAME":"TEME","CLASSIFICATION_TYPE":"U","INCLINATION":"53.0552","APOAPSIS":"548.079","SEMIMAJOR_AXIS":"6925.347","PERIAPSIS":"546.344","MEAN_MOTION_DDOT":"0.0000000000000","OBJECT_NAME":"STARLINK-2159","GP_ID":"189881877","ELEMENT_SET_NO":"999","SITE":"AFETR","RA_OF_ASC_NODE":"78.0029","TIME_SYSTEM":"UTC","CENTER_NAME":"EARTH","EPOCH":"2021-11-16T14:21:34.233696","MEAN_ELEMENT_THEORY":"SGP4","NORAD_CAT_ID":"47745","PERIOD":"95.592","OBJECT_TYPE":"PAYLOAD","COUNTRY_CODE":"US","REV_AT_EPOCH":"4047","ARG_OF_PERICENTER":"81.3615","RCS_SIZE":"LARGE","ECCENTRICITY":"0.00012530","LAUNCH_DATE":"2021-03-04","OBJECT_ID":"2021-017Z","MEAN_MOTION":"15.06400666","DECAY_DATE":null,"EPHEMERIS_TYPE":"0","TLE_LINE1":"1 47745U 21017Z   21320.59831289  .00001339  00000-0  10876-3 0  9992"},{"GP_ID":"189882628","ELEMENT_SET_NO":"999","SITE":"AFETR","RA_OF_ASC_NODE":"78.0094","MEAN_MOTION_DDOT":"0.0000000000000","PERIAPSIS":"546.437","OBJECT_NAME":"STARLINK-2160","CLASSIFICATION_TYPE":"U","APOAPSIS":"547.983","INCLINATION":"53.0558","SEMIMAJOR_AXIS":"6925.345","MEAN_MOTION_DOT":"0.00001070","TLE_LINE2":"2 47746  53.0558  78.0094 0001116  87.2749 272.8367 15.06401046 40466","MEAN_ANOMALY":"272.8367","FILE":"3216827","REF_FRAME":"TEME","BSTAR":"0.00009068700000","OBJECT_TYPE":"PAYLOAD","COUNTRY_CODE":"US","REV_AT_EPOCH":"4046","ARG_OF_PERICENTER":"87.2749","NORAD_CAT_ID":"47746","PERIOD":"95.592","MEAN_ELEMENT_THEORY":"SGP4","TIME_SYSTEM":"UTC","CENTER_NAME":"EARTH","EPOCH":"2021-11-16T14:10:56.892864","LAUNCH_DATE":"2021-03-04","OBJECT_ID":"2021-017AA","RCS_SIZE":"LARGE","ECCENTRICITY":"0.00011160","TLE_LINE1":"1 47746U 21017AA  21320.59093626  .00001070  00000-0  90687-4 0  9999","EPHEMERIS_TYPE":"0","DECAY_DATE":null,"MEAN_MOTION":"15.06401046"},{"PERIOD":"95.592","NORAD_CAT_ID":"47747","ARG_OF_PERICENTER":"81.4915","OBJECT_TYPE":"PAYLOAD","COUNTRY_CODE":"US","REV_AT_EPOCH":"3998","EPOCH":"2021-11-16T14:06:57.210624","TIME_SYSTEM":"UTC","CENTER_NAME":"EARTH","MEAN_ELEMENT_THEORY":"SGP4","MEAN_MOTION_DDOT":"0.0000000000000","PERIAPSIS":"546.397","OBJECT_NAME":"STARLINK-2161","SITE":"AFETR","RA_OF_ASC_NODE":"68.0419","GP_ID":"189885399","ELEMENT_SET_NO":"999","FILE":"3216933","MEAN_ANOMALY":"278.6204","BSTAR":"0.00002162700000","REF_FRAME":"TEME","MEAN_MOTION_DOT":"0.00000041","TLE_LINE2":"2 47747  53.0580  68.0419 0001150  81.4915 278.6204 15.06406428 39989","INCLINATION":"53.0580","APOAPSIS":"547.990","SEMIMAJOR_AXIS":"6925.329","CLASSIFICATION_TYPE":"U","EPHEMERIS_TYPE":"0","TLE_LINE1":"1 47747U 21017AB  21320.58816216  .00000041  00000-0  21627-4 0  9992","MEAN_MOTION":"15.06406428","DECAY_DATE":null,"RCS_SIZE":"LARGE","ECCENTRICITY":"0.00011500","OBJECT_ID":"2021-017AB","LAUNCH_DATE":"2021-03-04"},{"LAUNCH_DATE":"2021-03-04","OBJECT_ID":"2021-017AC","ECCENTRICITY":"0.00011670","RCS_SIZE":"LARGE","DECAY_DATE":null,"MEAN_MOTION":"15.06416782","TLE_LINE1":"1 47748U 21017AC  21320.58079650 -.00002940  00000-0 -17850-3 0  9990","EPHEMERIS_TYPE":"0","CLASSIFICATION_TYPE":"U","SEMIMAJOR_AXIS":"6925.297","APOAPSIS":"547.970","INCLINATION":"53.0580","TLE_LINE2":"2 47748  53.0580  68.0762 0001167  87.2436 272.8686 15.06416782 40617","MEAN_MOTION_DOT":"-0.00002940","REF_FRAME":"TEME","BSTAR":"-0.00017850000000","FILE":"3216827","MEAN_ANOMALY":"272.8686","ELEMENT_SET_NO":"999","GP_ID":"189881620","RA_OF_ASC_NODE":"68.0762","SITE":"AFETR","OBJECT_NAME":"STARLINK-2162","PERIAPSIS":"546.354","MEAN_MOTION_DDOT":"0.0000000000000","MEAN_ELEMENT_THEORY":"SGP4","TIME_SYSTEM":"UTC","CENTER_NAME":"EARTH","EPOCH":"2021-11-16T13:56:20.817600","REV_AT_EPOCH":"4061","OBJECT_TYPE":"PAYLOAD","COUNTRY_CODE":"US","ARG_OF_PERICENTER":"87.2436","NORAD_CAT_ID":"47748","PERIOD":"95.591"},{"BSTAR":"-0.00000986230000","REF_FRAME":"TEME","MEAN_ANOMALY":"269.1018","FILE":"3216933","TLE_LINE2":"2 47749  53.0566  67.3935 0001269  91.0116 269.1018 15.06397900 40008","MEAN_MOTION_DOT":"-0.00000428","SEMIMAJOR_AXIS":"6925.355","APOAPSIS":"548.099","INCLINATION":"53.0566","CLASSIFICATION_TYPE":"U","OBJECT_NAME":"STARLINK-2163","PERIAPSIS":"546.341","MEAN_MOTION_DDOT":"0.0000000000000","RA_OF_ASC_NODE":"67.3935","SITE":"AFETR","ELEMENT_SET_NO":"999","GP_ID":"189885408","EPOCH":"2021-11-16T17:28:39.794304","CENTER_NAME":"EARTH","TIME_SYSTEM":"UTC","MEAN_ELEMENT_THEORY":"SGP4","PERIOD":"95.592","NORAD_CAT_ID":"47749","ARG_OF_PERICENTER":"91.0116","REV_AT_EPOCH":"4000","OBJECT_TYPE":"PAYLOAD","COUNTRY_CODE":"US","ECCENTRICITY":"0.00012690","RCS_SIZE":"MEDIUM","OBJECT_ID":"2021-017AD","LAUNCH_DATE":"2021-03-04","MEAN_MOTION":"15.06397900","DECAY_DATE":null,"EPHEMERIS_TYPE":"0","TLE_LINE1":"1 47749U 21017AD  21320.72823836 -.00000428  00000-0 -98623-5 0  9998"},{"LAUNCH_DATE":"2021-03-04","OBJECT_ID":"2021-017AE","ECCENTRICITY":"0.00011550","RCS_SIZE":"LARGE","DECAY_DATE":null,"MEAN_MOTION":"15.06396998","TLE_LINE1":"1 47750U 21017AE  21320.77247158 -.00000552  00000-0 -18154-4 0  9990","EPHEMERIS_TYPE":"0","CLASSIFICATION_TYPE":"U","SEMIMAJOR_AXIS":"6925.358","APOAPSIS":"548.023","INCLINATION":"53.0574","TLE_LINE2":"2 47750  53.0574  67.2074 0001155  84.6466 275.4655 15.06396998 40016","MEAN_MOTION_DOT":"-0.00000552","BSTAR":"-0.00001815400000","REF_FRAME":"TEME","FILE":"3216934","MEAN_ANOMALY":"275.4655","ELEMENT_SET_NO":"999","GP_ID":"189885801","RA_OF_ASC_NODE":"67.2074","SITE":"AFETR","OBJECT_NAME":"STARLINK-2164","PERIAPSIS":"546.423","MEAN_MOTION_DDOT":"0.0000000000000","MEAN_ELEMENT_THEORY":"SGP4","TIME_SYSTEM":"UTC","CENTER_NAME":"EARTH","EPOCH":"2021-11-16T18:32:21.544512","REV_AT_EPOCH":"4001","COUNTRY_CODE":"US","OBJECT_TYPE":"PAYLOAD","ARG_OF_PERICENTER":"84.6466","NORAD_CAT_ID":"47750","PERIOD":"95.592"}];
